      2.10          N: GNSS NAV DATA                        RINEX VERSION / TYPE
fic2rin                                 03/28/2022 00:17:18 PGM / RUN BY / DATE
                                                            END OF HEADER
12 22  3 27  1 59 44.0-1.909895800054e-04-5.798028723802e-12 0.000000000000e+00
    1.000000000000e+00 1.503125000000e+01 4.223390206869e-09 2.154762270155e+00
    7.115304470062e-07 8.729175315239e-03 7.953494787216e-06 5.153578248978e+03
    7.184000000000e+03 6.519258022308e-08 1.587128396897e+00-1.210719347000e-07
    9.695713045709e-01 2.297187500000e+02 1.262770504649e+00-7.804610807653e-09
   -3.192990143713e-10 1.000000000000e+00 2.203000000000e+03 0.000000000000e+00
    2.400000000000e+00 0.000000000000e+00-1.257285475731e-08 1.000000000000e+00
    9.300000000000e+02 4.000000000000e+00
23 22  3 27  2 59 44.0-1.014070585370e-05-3.069544618484e-12 0.000000000000e+00
    3.700000000000e+01-9.790625000000e+01 4.479472302287e-09-3.051582832731e+00
   -5.109235644341e-06 2.035030862316e-03 5.878508090973e-06 5.153706781387e+03
    1.078400000000e+04-5.401670932770e-08-1.653664368844e+00 1.676380634308e-08
    9.676057146733e-01 2.704375000000e+02 3.001277514090e+00-8.073193423768e-09
   -1.514348792991e-10 1.000000000000e+00 2.203000000000e+03 0.000000000000e+00
    2.400000000000e+00 0.000000000000e+00-8.381903171539e-09 2.930000000000e+02
    3.600000000000e+03 4.000000000000e+00
 8 22  3 27  1 59 44.0-6.145285442472e-05-1.591615728103e-12 0.000000000000e+00
    9.000000000000e+00 9.046875000000e+01 4.298393331050e-09-6.025277610140e-01
    4.719942808151e-06 7.419416797347e-03 8.545815944672e-06 5.153741823196e+03
    7.184000000000e+03 1.359730958939e-07 2.542488436872e+00-5.029141902924e-08
    9.643696506440e-01 2.133125000000e+02 1.380670440294e-01-8.039977754488e-09
    3.500145795122e-11 1.000000000000e+00 2.203000000000e+03 0.000000000000e+00
    2.400000000000e+00 0.000000000000e+00 5.122274160385e-09 9.000000000000e+00
    4.860000000000e+03 4.000000000000e+00
12 22  3 27  3 59 44.0-1.910310238600e-04-5.798028723802e-12 0.000000000000e+00
    5.000000000000e+00 7.812500000000e+00 4.226247468742e-09-3.078118788620e+00
    4.563480615616e-07 8.729994646274e-03 8.048489689827e-06 5.153576396942e+03
    1.438400000000e+04 3.725290298462e-09 1.587073097131e+00-7.450580596924e-09
    9.695690838612e-01 2.276562500000e+02 1.262703864341e+00-7.709249692622e-09
   -3.857303529318e-10 1.000000000000e+00 2.203000000000e+03 0.000000000000e+00
    2.400000000000e+00 0.000000000000e+00-1.257285475731e-08 5.000000000000e+00
    7.200000000000e+03 4.000000000000e+00
 8 22  3 27  3 59 44.0-6.146403029561e-05-1.591615728103e-12 0.000000000000e+00
    1.200000000000e+01 8.531250000000e+01 4.208746739767e-09 4.476717161239e-01
    4.505738615990e-06 7.420264300890e-03 8.361414074898e-06 5.153743497849e+03
    1.438400000000e+04 1.545995473862e-07 2.542430715976e+00 7.823109626770e-08
    9.643699812635e-01 2.203125000000e+02 1.380038225617e-01-7.998904615055e-09
    3.928735076157e-12 1.000000000000e+00 2.203000000000e+03 0.000000000000e+00
    2.400000000000e+00 0.000000000000e+00 5.122274160385e-09 1.200000000000e+01
    7.200000000000e+03 4.000000000000e+00
 2 22  3 27  4  0  0.0-6.526731885970e-04-3.410605131648e-13 0.000000000000e+00
    8.200000000000e+01 5.371875000000e+01 4.601977405117e-09-1.630990601534e+00
    3.315508365631e-06 2.056192944292e-02 3.533437848091e-06 5.153634363174e+03
    1.440000000000e+04-8.754432201385e-08-2.750670122052e+00 5.830079317093e-07
    9.656743190229e-01 3.167812500000e+02-1.429224485074e+00-8.268558704374e-09
    2.489389407347e-10 1.000000000000e+00 2.203000000000e+03 0.000000000000e+00
    2.400000000000e+00 0.000000000000e+00-1.769512891769e-08 8.200000000000e+01
    7.200000000000e+03 4.000000000000e+00
 1 22  3 27  4  0  0.0 3.992863930762e-04-8.981260180008e-12 0.000000000000e+00
    5.000000000000e+01 1.971875000000e+01 4.160887603384e-09-1.769753877535e+00
    1.031905412674e-06 1.161665283144e-02 2.413988113403e-06 5.153667299271e+03
    1.440000000000e+04 1.564621925354e-07-2.660612375996e+00-8.009374141693e-08
    9.873955906125e-01 3.432187500000e+02 8.876339490597e-01-8.044977962767e-09
    3.096557555480e-10 1.000000000000e+00 2.203000000000e+03 0.000000000000e+00
    2.400000000000e+00 0.000000000000e+00 5.122274160385e-09 5.000000000000e+01
    7.200000000000e+03 4.000000000000e+00
 6 22  3 27  4  0  0.0 2.451734617352e-04 1.307398633799e-11 0.000000000000e+00
    5.000000000000e+00 3.706250000000e+01 4.235890727566e-09-1.495123606357e+00
    1.871958374977e-06 2.671540598385e-03 3.330409526825e-06 5.153694648743e+03
    1.440000000000e+04-1.210719347000e-07-2.668883730909e+00-3.166496753693e-08
    9.867597771569e-01 3.330000000000e+02-9.024939534557e-01-8.180340744027e-09
    2.460816788611e-10 1.000000000000e+00 2.203000000000e+03 0.000000000000e+00
    2.400000000000e+00 0.000000000000e+00 3.725290298462e-09 5.000000000000e+00
    7.200000000000e+03 4.000000000000e+00
18 22  3 27  4  0  0.0 2.103731967509e-04-8.981260180008e-12 0.000000000000e+00
    0.000000000000e+00 2.915625000000e+01 4.466971781590e-09-1.511266862011e+00
    1.365318894386e-06 2.158875693567e-03 3.332272171974e-06 5.153614727020e+03
    1.440000000000e+04 9.313225746155e-08-2.653393068380e+00-2.048909664154e-08
    9.711860545288e-01 3.205625000000e+02 3.071460539346e+00-8.278916278665e-09
    2.496532562031e-10 1.000000000000e+00 2.203000000000e+03 0.000000000000e+00
    2.400000000000e+00 0.000000000000e+00-8.381903171539e-09 0.000000000000e+00
    7.200000000000e+03 4.000000000000e+00
10 22  3 27  4  0  0.0-3.594192676246e-04-1.193711796077e-11 0.000000000000e+00
    1.500000000000e+01-1.020312500000e+02 4.347681098369e-09 2.468789662519e+00
   -5.392357707024e-06 7.565444335341e-03 6.029382348061e-06 5.153682888031e+03
    1.440000000000e+04-1.043081283569e-07-1.628626405958e+00-1.080334186554e-07
    9.725400437279e-01 2.717187500000e+02-2.497059299217e+00-7.951402636407e-09
   -1.271481533738e-10 1.000000000000e+00 2.203000000000e+03 0.000000000000e+00
    2.400000000000e+00 0.000000000000e+00 2.328306436539e-09 1.500000000000e+01
    7.200000000000e+03 4.000000000000e+00
 5 22  3 27  4  0  0.0-7.611513137817e-05-1.364242052659e-12 0.000000000000e+00
    9.900000000000e+01-9.653125000000e+01 4.815914887900e-09 8.904906301548e-01
   -4.824250936508e-06 5.874903406948e-03 4.900619387627e-06 5.153690654755e+03
    1.440000000000e+04-3.539025783539e-08-1.666796715265e+00 3.911554813385e-08
    9.597277530617e-01 2.880000000000e+02 1.008771755438e+00-8.367848554480e-09
   -1.642925577302e-10 1.000000000000e+00 2.203000000000e+03 0.000000000000e+00
    2.400000000000e+00 0.000000000000e+00-1.117587089539e-08 9.900000000000e+01
    7.200000000000e+03 4.000000000000e+00
 3 22  3 27  4  0  0.0-1.811757683754e-04-1.614353095647e-11 0.000000000000e+00
    5.000000000000e+01-1.189375000000e+02 4.356610041724e-09-2.902665427712e+00
   -6.083399057388e-06 3.962923190556e-03 6.070360541344e-06 5.153660070419e+03
    1.440000000000e+04 6.146728992462e-08-1.625848930174e+00-9.685754776001e-08
    9.727218010589e-01 2.656562500000e+02 9.455081600729e-01-8.053549748387e-09
   -1.392915163365e-10 1.000000000000e+00 2.203000000000e+03 0.000000000000e+00
    3.400000000000e+00 0.000000000000e+00 1.862645149231e-09 5.000000000000e+01
    7.200000000000e+03 4.000000000000e+00
 7 22  3 27  4  0  0.0 3.179362975061e-04 1.705302565824e-12 0.000000000000e+00
    3.900000000000e+01 2.500000000000e+01 4.817343518837e-09-2.442769386716e+00
    1.123175024986e-06 1.575351005886e-02 6.930902600288e-06 5.153671552658e+03
    1.440000000000e+04 1.061707735062e-07 4.739245900500e-01-1.415610313416e-07
    9.511636828710e-01 2.392187500000e+02-2.283244248596e+00-7.844969631617e-09
    2.546534644818e-10 1.000000000000e+00 2.203000000000e+03 0.000000000000e+00
    2.400000000000e+00 0.000000000000e+00-1.117587089539e-08 3.900000000000e+01
    7.200000000000e+03 4.000000000000e+00
 4 22  3 27  4  0  0.0-1.807003282011e-04 2.842170943040e-12 0.000000000000e+00
    1.290000000000e+02-4.365625000000e+01 4.384111187257e-09-3.393154513362e-02
   -2.451241016388e-06 1.763330190443e-03 1.093000173569e-05 5.153638978958e+03
    1.440000000000e+04-1.303851604462e-08-5.442448267816e-01 6.705522537231e-08
    9.614659338068e-01 1.666875000000e+02-3.000816127282e+00-7.835683530528e-09
    1.785788670980e-10 1.000000000000e+00 2.203000000000e+03 0.000000000000e+00
    2.400000000000e+00 0.000000000000e+00-4.190951585770e-09 1.290000000000e+02
    7.200000000000e+03 4.000000000000e+00
15 22  3 27  4  0  0.0-7.367786020041e-05 2.955857780762e-12 0.000000000000e+00
    4.000000000000e+01-5.193750000000e+01 5.189144720135e-09-5.210428158447e-01
   -2.622604370117e-06 1.395153673366e-02 9.970739483833e-06 5.153762857437e+03
    1.440000000000e+04-6.705522537231e-08-7.045832025242e-01 1.695007085800e-07
    9.302530595396e-01 1.706875000000e+02 1.081868385395e+00-8.492139445980e-09
    6.357407668690e-11 1.000000000000e+00 2.203000000000e+03 0.000000000000e+00
    2.400000000000e+00 0.000000000000e+00-1.071020960808e-08 4.000000000000e+01
    7.200000000000e+03 4.000000000000e+00
21 22  3 27  4  0  0.0 1.598438248038e-04 3.410605131648e-13 0.000000000000e+00
    2.400000000000e+01 2.621875000000e+01 4.982707549770e-09 5.989948562772e-01
    9.816139936447e-07 2.452031418215e-02 3.183260560036e-06 5.153562173843e+03
    1.440000000000e+04-6.705522537231e-08-2.752563408686e+00-4.619359970093e-07
    9.599386531837e-01 3.216562500000e+02-9.786858649832e-01-8.857868965797e-09
    2.228664261384e-10 1.000000000000e+00 2.203000000000e+03 0.000000000000e+00
    2.400000000000e+00 0.000000000000e+00-1.024454832077e-08 2.400000000000e+01
    7.200000000000e+03 4.000000000000e+00
